{
  "type": "FeatureCollection",
  "features": [
    {
      "type": "Feature",
      "properties": {
        "norad_id": 66456,
        "name": "STARLINK-35643",
        "group": "last-30-days",
        "lat": 34.34360827154067,
        "lon": -123.38144219333293,
        "alt_km": 424.6137905969881,
        "timestamp": "2025-12-07T03:52:31.202989+00:00",
        "meta_object_name": "STARLINK-35643",
        "meta_object_id": "2025-262A",
        "meta_epoch": "2025-12-06T14:00:01.999872",
        "meta_mean_motion": 15.48423166,
        "meta_eccentricity": 0.00011412,
        "meta_inclination": 43.0005,
        "meta_ra_of_asc_node": 107.1405,
        "meta_arg_of_pericenter": 277.5357,
        "meta_mean_anomaly": 222.8893,
        "meta_ephemeris_type": 0,
        "meta_classification_type": "U",
        "meta_norad_cat_id": 66456,
        "meta_element_set_no": 999,
        "meta_rev_at_epoch": 464,
        "meta_bstar": -0.043534398,
        "meta_mean_motion_dot": -0.02099872,
        "meta_mean_motion_ddot": 0,
        "tle_line1": "1 66456U 25262A   25340.58335648 -.02099872  00000+0 -43534-1 0  9998",
        "tle_line2": "2 66456  43.0005 107.1405 0001141 277.5357 222.8893 15.48423166  4640"
      },
      "geometry": {
        "type": "Point",
        "coordinates": [
          -123.38144219333293,
          34.34360827154067
        ]
      }
    },
    {
      "type": "Feature",
      "properties": {
        "norad_id": 66457,
        "name": "STARLINK-35466",
        "group": "last-30-days",
        "lat": 28.604422414008397,
        "lon": -112.06814944380555,
        "alt_km": 416.90148580337245,
        "timestamp": "2025-12-07T03:52:31.203000+00:00",
        "meta_object_name": "STARLINK-35466",
        "meta_object_id": "2025-262B",
        "meta_epoch": "2025-12-06T14:00:01.999872",
        "meta_mean_motion": 15.50958088,
        "meta_eccentricity": 7.658e-05,
        "meta_inclination": 43.0004,
        "meta_ra_of_asc_node": 107.1263,
        "meta_arg_of_pericenter": 265.2967,
        "meta_mean_anomaly": 240.8087,
        "meta_ephemeris_type": 0,
        "meta_classification_type": "U",
        "meta_norad_cat_id": 66457,
        "meta_element_set_no": 999,
        "meta_rev_at_epoch": 464,
        "meta_bstar": -0.036037364,
        "meta_mean_motion_dot": -0.0192292,
        "meta_mean_motion_ddot": 0,
        "tle_line1": "1 66457U 25262B   25340.58335648 -.01922920  00000+0 -36037-1 0  9997",
        "tle_line2": "2 66457  43.0004 107.1263 0000765 265.2967 240.8087 15.50958088  4648"
      },
      "geometry": {
        "type": "Point",
        "coordinates": [
          -112.06814944380555,
          28.604422414008397
        ]
      }
    },
    {
      "type": "Feature",
      "properties": {
        "norad_id": 66458,
        "name": "STARLINK-35684",
        "group": "last-30-days",
        "lat": 31.24460395777423,
        "lon": -116.8609543152694,
        "alt_km": 420.55640646987285,
        "timestamp": "2025-12-07T03:52:31.203012+00:00",
        "meta_object_name": "STARLINK-35684",
        "meta_object_id": "2025-262C",
        "meta_epoch": "2025-12-06T14:00:01.999872",
        "meta_mean_motion": 15.4974832,
        "meta_eccentricity": 7.832e-05,
        "meta_inclination": 43.0002,
        "meta_ra_of_asc_node": 107.1311,
        "meta_arg_of_pericenter": 248.2268,
        "meta_mean_anomaly": 255.7201,
        "meta_ephemeris_type": 0,
        "meta_classification_type": "U",
        "meta_norad_cat_id": 66458,
        "meta_element_set_no": 999,
        "meta_rev_at_epoch": 464,
        "meta_bstar": -0.04129339,
        "meta_mean_motion_dot": -0.02089027,
        "meta_mean_motion_ddot": 0,
        "tle_line1": "1 66458U 25262C   25340.58335648 -.02089027  00000+0 -41293-1 0  9991",
        "tle_line2": "2 66458  43.0002 107.1311 0000783 248.2268 255.7201 15.49748320  4643"
      },
      "geometry": {
        "type": "Point",
        "coordinates": [
          -116.8609543152694,
          31.24460395777423
        ]
      }
    },
    {
      "type": "Feature",
      "properties": {
        "norad_id": 66459,
        "name": "STARLINK-35449",
        "group": "last-30-days",
        "lat": 26.583156968702568,
        "lon": -108.73969383080369,
        "alt_km": 411.85432221069095,
        "timestamp": "2025-12-07T03:52:31.203023+00:00",
        "meta_object_name": "STARLINK-35449",
        "meta_object_id": "2025-262D",
        "meta_epoch": "2025-12-06T14:00:01.999872",
        "meta_mean_motion": 15.50635549,
        "meta_eccentricity": 0.00011843,
        "meta_inclination": 43.0004,
        "meta_ra_of_asc_node": 107.121,
        "meta_arg_of_pericenter": 273.5934,
        "meta_mean_anomaly": 234.4593,
        "meta_ephemeris_type": 0,
        "meta_classification_type": "U",
        "meta_norad_cat_id": 66459,
        "meta_element_set_no": 999,
        "meta_rev_at_epoch": 464,
        "meta_bstar": -0.002939069,
        "meta_mean_motion_dot": -0.00169422,
        "meta_mean_motion_ddot": 0,
        "tle_line1": "1 66459U 25262D   25340.58335648 -.00169422  00000+0 -29391-2 0  9994",
        "tle_line2": "2 66459  43.0004 107.1210 0001184 273.5934 234.4593 15.50635549  4649"
      },
      "geometry": {
        "type": "Point",
        "coordinates": [
          -108.73969383080369,
          26.583156968702568
        ]
      }
    },
    {
      "type": "Feature",
      "properties": {
        "norad_id": 66460,
        "name": "STARLINK-35424",
        "group": "last-30-days",
        "lat": 25.424974916253277,
        "lon": -106.9381612466873,
        "alt_km": 411.73053713719037,
        "timestamp": "2025-12-07T03:52:31.203033+00:00",
        "meta_object_name": "STARLINK-35424",
        "meta_object_id": "2025-262E",
        "meta_epoch": "2025-12-06T14:00:01.999872",
        "meta_mean_motion": 15.50591626,
        "meta_eccentricity": 0.00012549,
        "meta_inclination": 43.0004,
        "meta_ra_of_asc_node": 107.1165,
        "meta_arg_of_pericenter": 273.2095,
        "meta_mean_anomaly": 236.7723,
        "meta_ephemeris_type": 0,
        "meta_classification_type": "U",
        "meta_norad_cat_id": 66460,
        "meta_element_set_no": 999,
        "meta_rev_at_epoch": 464,
        "meta_bstar": -0.00074048245,
        "meta_mean_motion_dot": -0.0004356,
        "meta_mean_motion_ddot": 0,
        "tle_line1": "1 66460U 25262E   25340.58335648 -.00043560  00000+0 -74048-3 0  9990",
        "tle_line2": "2 66460  43.0004 107.1165 0001254 273.2095 236.7723 15.50591626  4640"
      },
      "geometry": {
        "type": "Point",
        "coordinates": [
          -106.9381612466873,
          25.424974916253277
        ]
      }
    },
    {
      "type": "Feature",
      "properties": {
        "norad_id": 66461,
        "name": "STARLINK-35132",
        "group": "last-30-days",
        "lat": 24.320219549623886,
        "lon": -105.28176779581995,
        "alt_km": 412.0623708726516,
        "timestamp": "2025-12-07T03:52:31.203043+00:00",
        "meta_object_name": "STARLINK-35132",
        "meta_object_id": "2025-262F",
        "meta_epoch": "2025-12-06T14:00:01.999872",
        "meta_mean_motion": 15.50635137,
        "meta_eccentricity": 0.00011489,
        "meta_inclination": 43.0004,
        "meta_ra_of_asc_node": 107.1121,
        "meta_arg_of_pericenter": 267.9034,
        "meta_mean_anomaly": 243.9951,
        "meta_ephemeris_type": 0,
        "meta_classification_type": "U",
        "meta_norad_cat_id": 66461,
        "meta_element_set_no": 999,
        "meta_rev_at_epoch": 464,
        "meta_bstar": -0.0027276601,
        "meta_mean_motion_dot": -0.00157494,
        "meta_mean_motion_ddot": 0,
        "tle_line1": "1 66461U 25262F   25340.58335648 -.00157494  00000+0 -27277-2 0  9994",
        "tle_line2": "2 66461  43.0004 107.1121 0001148 267.9034 243.9951 15.50635137  4647"
      },
      "geometry": {
        "type": "Point",
        "coordinates": [
          -105.28176779581995,
          24.320219549623886
        ]
      }
    },
    {
      "type": "Feature",
      "properties": {
        "norad_id": 66462,
        "name": "STARLINK-35499",
        "group": "last-30-days",
        "lat": 23.16834752359738,
        "lon": -103.6135363972242,
        "alt_km": 412.261163019527,
        "timestamp": "2025-12-07T03:52:31.203053+00:00",
        "meta_object_name": "STARLINK-35499",
        "meta_object_id": "2025-262G",
        "meta_epoch": "2025-12-06T14:00:01.999872",
        "meta_mean_motion": 15.50642366,
        "meta_eccentricity": 0.00011688,
        "meta_inclination": 43.0004,
        "meta_ra_of_asc_node": 107.1066,
        "meta_arg_of_pericenter": 269.1046,
        "meta_mean_anomaly": 244.7057,
        "meta_ephemeris_type": 0,
        "meta_classification_type": "U",
        "meta_norad_cat_id": 66462,
        "meta_element_set_no": 999,
        "meta_rev_at_epoch": 464,
        "meta_bstar": -0.0028915983,
        "meta_mean_motion_dot": -0.00166787,
        "meta_mean_motion_ddot": 0,
        "tle_line1": "1 66462U 25262G   25340.58335648 -.00166787  00000+0 -28916-2 0  9991",
        "tle_line2": "2 66462  43.0004 107.1066 0001168 269.1046 244.7057 15.50642366  4643"
      },
      "geometry": {
        "type": "Point",
        "coordinates": [
          -103.6135363972242,
          23.16834752359738
        ]
      }
    }
  ]
}